BEIDOU-3 M14            
1 43623U 18072B   26134.03606905 -.00000037  00000+0  00000+0 0  9990
2 43623  56.5980  63.7808 0006648 347.7176  12.2477  1.86231503 52014
BEIDOU-3 M16            
1 43647U 18078A   26138.48750758 -.00000056  00000+0  00000+0 0  9992
2 43647  54.1181 301.0266 0007821  40.0003 320.0297  1.86232202 51600
BEIDOU-3 M15            
1 43648U 18078B   26138.61680616 -.00000056  00000+0  00000+0 0  9993
2 43648  54.1140 301.0228 0004919  52.9460 307.0716  1.86232306 51626
BEIDOU-3 G1             
1 43683U 18085A   26138.84233867 -.00000108  00000+0  00000+0 0  9995
2 43683   2.7937  98.1796 0007811 340.9907 260.5666  1.00271394 27763
BEIDOU-3 M17            
1 43706U 18093A   26138.35612889  .00000068  00000+0  00000+0 0  9995
2 43706  54.1671 183.3085 0009685 290.9034 146.3367  1.86228319 50981
BEIDOU-3 M18            
1 43707U 18093B   26138.10402297  .00000072  00000+0  00000+0 0  9994
2 43707  54.1677 183.3095 0007491 321.2887  38.7461  1.86226497 50979
BEIDOU-3 IGSO-1         
1 44204U 19023A   26132.76772565 -.00000227  00000+0  00000+0 0  9998
2 44204  58.6468  38.0171 0023856 234.3090 349.8662  1.00250503  6851
BEIDOU-2 G8             
1 44231U 19027A   26138.91056594 -.00000246  00000+0  00000+0 0  9993
2 44231   1.5840  74.4286 0010728 280.2428 354.2561  1.00270786 25788
BEIDOU-3 IGSO-2         
1 44337U 19035A   26138.49204859 -.00000067  00000+0  00000+0 0  9992
2 44337  55.2398 159.1227 0039681 216.1098 158.0396  1.00275696 25371
BEIDOU-3 M24            
1 44542U 19061A   26137.63609944  .00000079  00000+0  00000+0 0  9990
2 44542  54.3945 183.7586 0008086   2.2135 357.8815  1.86229137 45223
BEIDOU-3 M23            
1 44543U 19061B   26137.27783898  .00000084  00000+0  00000+0 0  9998
2 44543  54.3932 183.7392 0005281 342.0693  49.6204  1.86227335 45229
BEIDOU-3 IGSO-3         
1 44709U 19073A   26120.85038409 -.00000212  00000+0  00000+0 0  9996
2 44709  54.8842 281.4069 0042404 188.8195 170.9972  1.00251230 23982
BEIDOU-3 M22            
1 44793U 19078A   26138.54935259 -.00000056  00000+0  00000+0 0  9994
2 44793  53.9642 300.8701 0006964  48.9586 311.0741  1.86227153 44091
BEIDOU-3 M21            
1 44794U 19078B   26136.54150291 -.00000055  00000+0  00000+0 0  9997
2 44794  53.9390 300.9027 0004900  45.2623 314.7514  1.86227806 44064
BEIDOU-3 M19            
1 44864U 19090A   26136.01109167 -.00000044  00000+0  00000+0 0  9995
2 44864  56.5317  63.8543 0019018 297.0179 264.4578  1.86231557 43638
BEIDOU-3 M20            
1 44865U 19090B   26137.47677451 -.00000044  00000+0  00000+0 0  9993
2 44865  56.5346  63.8405 0016733 310.1234 243.6125  1.86231384 43644
BEIDOU-3 G2             
1 45344U 20017A   26138.89782588 -.00000140  00000+0  00000+0 0  9999
2 45344   2.8057  46.8854 0002299   8.0620 224.8972  1.00271362 22962
BEIDOU-3 G3             
1 45807U 20040A   26138.90389257 -.00000353  00000+0  00000+0 0  9993
2 45807   2.3756  67.3577 0003056 331.3343 273.8518  1.00271638 21777
BEIDOU-3 G4             
1 56564U 23066A   26138.90969927 -.00000280  00000+0  00000+0 0  9993
2 56564   0.5243 324.5467 0003516 173.8713 205.7024  1.00273880 11100
BEIDOU-3 M28            
1 58654U 23207A   26137.15564226 -.00000046  00000+0  00000+0 0  9991
2 58654  55.7267  63.3498 0004118 332.6338  27.3288  1.86229591 16265
BEIDOU-3 M26            
1 58655U 23207B   26138.02705788 -.00000045  00000+0  00000+0 0  9998
2 58655  55.7295  63.3069 0004253 311.3849  48.5660  1.86229598 16268
BEIDOU-3 M25            
1 61186U 24168B   26138.42023484 -.00000057  00000+0  00000+0 0  9991
2 61186  54.5009 303.2761 0002997 312.1690  68.6400  1.86229773 11234
BEIDOU-3 M27            
1 61187U 24168C   26136.57389728 -.00000055  00000+0  00000+0 0  9990
2 61187  54.4980 303.3235 0002214  45.5930 312.3649  1.86229905  8669
