OBJECT_NAME,OBJECT_ID,EPOCH,MEAN_MOTION,ECCENTRICITY,INCLINATION,RA_OF_ASC_NODE,ARG_OF_PERICENTER,MEAN_ANOMALY,EPHEMERIS_TYPE,CLASSIFICATION_TYPE,NORAD_CAT_ID,ELEMENT_SET_NO,REV_AT_EPOCH,BSTAR,MEAN_MOTION_DOT,MEAN_MOTION_DDOT
BEIDOU-3 M14 (C33),2018-072B,2026-05-14T00:51:56.365920,1.86231503,.00066483,56.5980,63.7808,347.7176,12.2477,0,U,43623,999,5201,0,-.37E-6,0
BEIDOU-3 M16 (C35),2018-078A,2026-05-18T11:42:00.654912,1.86232202,.0007821,54.1181,301.0266,40.0003,320.0297,0,U,43647,999,5160,0,-.56E-6,0
BEIDOU-3 M15 (C34),2018-078B,2026-05-18T14:48:12.052224,1.86232306,.00049196,54.1140,301.0228,52.9460,307.0716,0,U,43648,999,5162,0,-.56E-6,0
BEIDOU-3 G1 (C59),2018-085A,2026-05-18T20:12:58.061088,1.00271394,.00078113,2.7937,98.1796,340.9907,260.5666,0,U,43683,999,2776,0,-.108E-5,0
BEIDOU-3 M17 (C36),2018-093A,2026-05-18T08:32:49.536096,1.86228319,.00096858,54.1671,183.3085,290.9034,146.3367,0,U,43706,999,5098,0,.68E-6,0
BEIDOU-3 M18 (C37),2018-093B,2026-05-18T02:29:47.584608,1.86226497,.00074914,54.1677,183.3095,321.2887,38.7461,0,U,43707,999,5097,0,.72E-6,0
BEIDOU-3 IGSO-1 (C38),2019-023A,2026-05-12T18:25:31.496160,1.00250503,.00238565,58.6468,38.0171,234.3090,349.8662,0,U,44204,999,685,0,-.227E-5,0
BEIDOU-2 G8 (C01),2019-027A,2026-05-18T21:51:12.897216,1.00270786,.00107284,1.5840,74.4286,280.2428,354.2561,0,U,44231,999,2578,0,-.246E-5,0
BEIDOU-3 IGSO-2 (C39),2019-035A,2026-05-18T11:48:32.998176,1.00275696,.0039681,55.2398,159.1227,216.1098,158.0396,0,U,44337,999,2537,0,-.67E-6,0
BEIDOU-3 M24 (C46),2019-061A,2026-05-17T15:15:58.991616,1.86229137,.00080864,54.3945,183.7586,2.2135,357.8815,0,U,44542,999,4522,0,.79E-6,0
BEIDOU-3 M23 (C45),2019-061B,2026-05-17T06:40:05.287872,1.86227335,.00052812,54.3932,183.7392,342.0693,49.6204,0,U,44543,999,4522,0,.84E-6,0
BEIDOU-3 IGSO-3 (C40),2019-073A,2026-04-30T20:24:33.185376,1.00251230,.00424046,54.8842,281.4069,188.8195,170.9972,0,U,44709,999,2398,0,-.212E-5,0
BEIDOU-3 M22 (C44),2019-078A,2026-05-18T13:11:04.063776,1.86227153,.00069644,53.9642,300.8701,48.9586,311.0741,0,U,44793,999,4409,0,-.56E-6,0
BEIDOU-3 M21 (C43),2019-078B,2026-05-16T12:59:45.851424,1.86227806,.00049006,53.9390,300.9027,45.2623,314.7514,0,U,44794,999,4406,0,-.55E-6,0
BEIDOU-3 M19 (C41),2019-090A,2026-05-16T00:15:58.320288,1.86231557,.00190187,56.5317,63.8543,297.0179,264.4578,0,U,44864,999,4363,0,-.44E-6,0
BEIDOU-3 M20 (C42),2019-090B,2026-05-17T11:26:33.317664,1.86231384,.00167335,56.5346,63.8405,310.1234,243.6125,0,U,44865,999,4364,0,-.44E-6,0
BEIDOU-3 G2 (C60),2020-017A,2026-05-18T21:32:52.156032,1.00271362,.0002299,2.8057,46.8854,8.0620,224.8972,0,U,45344,999,2296,0,-.14E-5,0
BEIDOU-3 G3 (C61),2020-040A,2026-05-18T21:41:36.318048,1.00271638,.00030567,2.3756,67.3577,331.3343,273.8518,0,U,45807,999,2177,0,-.353E-5,0
BEIDOU-3 G4 (C62),2023-066A,2026-05-18T21:49:58.016928,1.00273880,.00035168,0.5243,324.5467,173.8713,205.7024,0,U,56564,999,1110,0,-.28E-5,0
BEIDOU-3 M28 (C50),2023-207A,2026-05-17T03:44:07.491264,1.86229591,.0004118,55.7267,63.3498,332.6338,27.3288,0,U,58654,999,1626,0,-.46E-6,0
BEIDOU-3 M26 (C48),2023-207B,2026-05-18T00:38:57.800832,1.86229598,.00042538,55.7295,63.3069,311.3849,48.5660,0,U,58655,999,1626,0,-.45E-6,0
BEIDOU-3 M25 (C47),2024-168B,2026-05-18T10:05:08.290176,1.86229773,.00029978,54.5009,303.2761,312.1690,68.6400,0,U,61186,999,1123,0,-.57E-6,0
BEIDOU-3 M27 (C49),2024-168C,2026-05-16T13:46:24.724992,1.86229905,.0002214,54.4980,303.3235,45.5930,312.3649,0,U,61187,999,866,0,-.55E-6,0
